ONEWEB-0153             
1 48044U 21025C   24115.06990302  .00000399  00000+0  10580-2 0  9998
2 48044  87.8892 116.3088 0002076  89.4403 270.6964 13.13469053150627
ONEWEB-0154             
1 48045U 21025D   24114.91437730  .00000438  00000+0  11642-2 0  9997
2 48045  87.8889 116.3529 0001994  93.2103 266.9254 13.13469491150550
ONEWEB-0116             
1 48046U 21025E   24114.49857120 -.00000211  00000+0 -61299-3 0  9995
2 48046  87.8891 116.4029 0001764  89.0736 271.0595 13.13471752150648
ONEWEB-0150             
1 48047U 21025F   24114.93024933  .00000187  00000+0  47596-3 0  9997
2 48047  87.8886 116.3389 0002089  86.7771 273.3597 13.13469088150595
ONEWEB-0107             
1 48048U 21025G   24114.93183140  .00000202  00000+0  51858-3 0  9998
2 48048  87.8886 116.3365 0002303  86.0183 274.1209 13.13472090150573
ONEWEB-0101             
1 48049U 21025H   24115.04767704  .00000504  00000+0  13450-2 0  9996
2 48049  87.8893 116.3272 0002040  95.1541 264.9821 13.13476435150569
ONEWEB-0113             
1 48050U 21025J   24114.94928622 -.00000250  00000+0 -71933-3 0  9995
2 48050  87.8892 116.3287 0001800  88.5016 271.6319 13.13471801150639
ONEWEB-0112             
1 48051U 21025K   24114.93658912  .00000052  00000+0  10858-3 0  9994
2 48051  87.8886 116.3335 0002008  86.6284 273.5075 13.13468638150649
